[{"OBJECT_NAME":"HYLAS 4","OBJECT_ID":"2018-033B","EPOCH":"2026-03-05T18:58:20.551296","MEAN_MOTION":1.00268707,"ECCENTRICITY":0.00013324,"INCLINATION":0.026,"RA_OF_ASC_NODE":101.3047,"ARG_OF_PERICENTER":274.1893,"MEAN_ANOMALY":39.0252,"EPHEMERIS_TYPE":0,"CLASSIFICATION_TYPE":"U","NORAD_CAT_ID":43272,"ELEMENT_SET_NO":999,"REV_AT_EPOCH":2902,"BSTAR":0,"MEAN_MOTION_DOT":-2.41e-6,"MEAN_MOTION_DDOT":0},{"OBJECT_NAME":"IRNSS-1I","OBJECT_ID":"2018-035A","EPOCH":"2026-03-06T02:14:27.568896","MEAN_MOTION":1.00278362,"ECCENTRICITY":0.00189844,"INCLINATION":28.9335,"RA_OF_ASC_NODE":75.7879,"ARG_OF_PERICENTER":190.6309,"MEAN_ANOMALY":346.1515,"EPHEMERIS_TYPE":0,"CLASSIFICATION_TYPE":"U","NORAD_CAT_ID":43286,"ELEMENT_SET_NO":999,"REV_AT_EPOCH":2904,"BSTAR":0,"MEAN_MOTION_DOT":8.6e-7,"MEAN_MOTION_DDOT":0},{"OBJECT_NAME":"METEOSAT 3 AKM","OBJECT_ID":"1988-051G","EPOCH":"2026-03-04T04:02:30.325056","MEAN_MOTION":0.99534406,"ECCENTRICITY":0.00545087,"INCLINATION":12.0863,"RA_OF_ASC_NODE":330.8208,"ARG_OF_PERICENTER":172.2483,"MEAN_ANOMALY":187.8452,"EPHEMERIS_TYPE":0,"CLASSIFICATION_TYPE":"U","NORAD_CAT_ID":43333,"ELEMENT_SET_NO":999,"REV_AT_EPOCH":4465,"BSTAR":0,"MEAN_MOTION_DOT":-2.46e-6,"MEAN_MOTION_DDOT":0},{"OBJECT_NAME":"USA 283","OBJECT_ID":"2018-036A","EPOCH":"2026-03-03T19:50:47.883840","MEAN_MOTION":1.00271212,"ECCENTRICITY":7.78e-5,"INCLINATION":0.0172,"RA_OF_ASC_NODE":128.2274,"ARG_OF_PERICENTER":251.2663,"MEAN_ANOMALY":213.8636,"EPHEMERIS_TYPE":0,"CLASSIFICATION_TYPE":"U","NORAD_CAT_ID":43339,"ELEMENT_SET_NO":999,"REV_AT_EPOCH":2423,"BSTAR":0,"MEAN_MOTION_DOT":-3.31e-6,"MEAN_MOTION_DDOT":0},{"OBJECT_NAME":"FENGYUN 2A DEB","OBJECT_ID":"1997-029D","EPOCH":"2026-03-03T07:38:11.575392","MEAN_MOTION":1.00338448,"ECCENTRICITY":0.0124481,"INCLINATION":14.849,"RA_OF_ASC_NODE":357.802,"ARG_OF_PERICENTER":10.6378,"MEAN_ANOMALY":349.6222,"EPHEMERIS_TYPE":0,"CLASSIFICATION_TYPE":"U","NORAD_CAT_ID":43355,"ELEMENT_SET_NO":999,"REV_AT_EPOCH":4154,"BSTAR":0,"MEAN_MOTION_DOT":-2.72e-6,"MEAN_MOTION_DDOT":0},{"OBJECT_NAME":"FENGYUN 2F DEB","OBJECT_ID":"2012-002D","EPOCH":"2026-03-02T10:34:26.231232","MEAN_MOTION":1.0034115,"ECCENTRICITY":0.0277256,"INCLINATION":8.8637,"RA_OF_ASC_NODE":58.5194,"ARG_OF_PERICENTER":300.8919,"MEAN_ANOMALY":56.5211,"EPHEMERIS_TYPE":0,"CLASSIFICATION_TYPE":"U","NORAD_CAT_ID":43396,"ELEMENT_SET_NO":999,"REV_AT_EPOCH":4169,"BSTAR":0,"MEAN_MOTION_DOT":-3.71e-6,"MEAN_MOTION_DDOT":0},{"OBJECT_NAME":"COSMOS 2526","OBJECT_ID":"2018-037A","EPOCH":"2026-03-04T19:27:38.616768","MEAN_MOTION":1.00282662,"ECCENTRICITY":6.479e-5,"INCLINATION":0.0044,"RA_OF_ASC_NODE":170.9156,"ARG_OF_PERICENTER":98.7173,"MEAN_ANOMALY":312.8956,"EPHEMERIS_TYPE":0,"CLASSIFICATION_TYPE":"U","NORAD_CAT_ID":43432,"ELEMENT_SET_NO":999,"REV_AT_EPOCH":2891,"BSTAR":0,"MEAN_MOTION_DOT":-3.54e-6,"MEAN_MOTION_DDOT":0},{"OBJECT_NAME":"BREEZE-M R/B","OBJECT_ID":"2018-037B","EPOCH":"2026-03-05T08:10:32.608416","MEAN_MOTION":0.90514372,"ECCENTRICITY":0.06782588,"INCLINATION":7.8523,"RA_OF_ASC_NODE":72.3607,"ARG_OF_PERICENTER":25.7675,"MEAN_ANOMALY":337.6327,"EPHEMERIS_TYPE":0,"CLASSIFICATION_TYPE":"U","NORAD_CAT_ID":43433,"ELEMENT_SET_NO":999,"REV_AT_EPOCH":2626,"BSTAR":0,"MEAN_MOTION_DOT":-2.04e-6,"MEAN_MOTION_DDOT":0},{"OBJECT_NAME":"TITAN 3C TRANSTAGE DEB","OBJECT_ID":"1969-013H","EPOCH":"2026-02-09T03:31:29.424576","MEAN_MOTION":0.98712779,"ECCENTRICITY":0.0242113,"INCLINATION":0.8535,"RA_OF_ASC_NODE":115.0374,"ARG_OF_PERICENTER":25.4779,"MEAN_ANOMALY":221.2557,"EPHEMERIS_TYPE":0,"CLASSIFICATION_TYPE":"U","NORAD_CAT_ID":43448,"ELEMENT_SET_NO":999,"REV_AT_EPOCH":2827,"BSTAR":0,"MEAN_MOTION_DOT":-2.54e-6,"MEAN_MOTION_DDOT":0},{"OBJECT_NAME":"APSTAR-6C","OBJECT_ID":"2018-041A","EPOCH":"2026-03-05T21:24:49.333824","MEAN_MOTION":1.00269161,"ECCENTRICITY":0.0003105,"INCLINATION":0.0156,"RA_OF_ASC_NODE":47.2228,"ARG_OF_PERICENTER":301.0885,"MEAN_ANOMALY":270.5438,"EPHEMERIS_TYPE":0,"CLASSIFICATION_TYPE":"U","NORAD_CAT_ID":43450,"ELEMENT_SET_NO":999,"REV_AT_EPOCH":2877,"BSTAR":0,"MEAN_MOTION_DOT":0,"MEAN_MOTION_DDOT":0},{"OBJECT_NAME":"TITAN 3C TRANSTAGE DEB","OBJECT_ID":"1969-013L","EPOCH":"2026-03-06T06:08:01.922784","MEAN_MOTION":1.07381285,"ECCENTRICITY":0.06837382,"INCLINATION":1.3947,"RA_OF_ASC_NODE":144.3194,"ARG_OF_PERICENTER":326.0993,"MEAN_ANOMALY":29.9492,"EPHEMERIS_TYPE":0,"CLASSIFICATION_TYPE":"U","NORAD_CAT_ID":43453,"ELEMENT_SET_NO":999,"REV_AT_EPOCH":3093,"BSTAR":0,"MEAN_MOTION_DOT":-1.86e-6,"MEAN_MOTION_DDOT":0},{"OBJECT_NAME":"TITAN 3C TRANSTAGE DEB","OBJECT_ID":"1969-013M","EPOCH":"2026-02-28T01:16:09.528384","MEAN_MOTION":1.028441,"ECCENTRICITY":0.05468602,"INCLINATION":0.9341,"RA_OF_ASC_NODE":135.2044,"ARG_OF_PERICENTER":335.3805,"MEAN_ANOMALY":255.3247,"EPHEMERIS_TYPE":0,"CLASSIFICATION_TYPE":"U","NORAD_CAT_ID":43454,"ELEMENT_SET_NO":999,"REV_AT_EPOCH":2951,"BSTAR":0,"MEAN_MOTION_DOT":-2.7e-7,"MEAN_MOTION_DDOT":0},{"OBJECT_NAME":"TITAN 3C TRANSTAGE DEB","OBJECT_ID":"1969-013P","EPOCH":"2026-03-03T16:37:14.185920","MEAN_MOTION":1.0273288,"ECCENTRICITY":0.06899104,"INCLINATION":1.7335,"RA_OF_ASC_NODE":48.1009,"ARG_OF_PERICENTER":30.4134,"MEAN_ANOMALY":334.1047,"EPHEMERIS_TYPE":0,"CLASSIFICATION_TYPE":"U","NORAD_CAT_ID":43456,"ELEMENT_SET_NO":999,"REV_AT_EPOCH":564,"BSTAR":0,"MEAN_MOTION_DOT":-1.4e-7,"MEAN_MOTION_DDOT":0},{"OBJECT_NAME":"BANGABANDHUSAT-1","OBJECT_ID":"2018-044A","EPOCH":"2026-03-06T06:18:38.534400","MEAN_MOTION":1.00273007,"ECCENTRICITY":0.00024036,"INCLINATION":0.0103,"RA_OF_ASC_NODE":147.149,"ARG_OF_PERICENTER":211.8658,"MEAN_ANOMALY":18.7207,"EPHEMERIS_TYPE":0,"CLASSIFICATION_TYPE":"U","NORAD_CAT_ID":43463,"ELEMENT_SET_NO":999,"REV_AT_EPOCH":2867,"BSTAR":0,"MEAN_MOTION_DOT":-3.67e-6,"MEAN_MOTION_DDOT":0},{"OBJECT_NAME":"SES-12","OBJECT_ID":"2018-049A","EPOCH":"2026-03-05T21:17:43.531296","MEAN_MOTION":1.0026855,"ECCENTRICITY":0.00019077,"INCLINATION":0.0149,"RA_OF_ASC_NODE":123.537,"ARG_OF_PERICENTER":181.2223,"MEAN_ANOMALY":273.302,"EPHEMERIS_TYPE":0,"CLASSIFICATION_TYPE":"U","NORAD_CAT_ID":43488,"ELEMENT_SET_NO":999,"REV_AT_EPOCH":2838,"BSTAR":0,"MEAN_MOTION_DOT":0,"MEAN_MOTION_DDOT":0},{"OBJECT_NAME":"FENGYUN 2H","OBJECT_ID":"2018-050A","EPOCH":"2026-03-06T02:28:38.663328","MEAN_MOTION":1.00272682,"ECCENTRICITY":0.00017566,"INCLINATION":2.7651,"RA_OF_ASC_NODE":80.3398,"ARG_OF_PERICENTER":174.9728,"MEAN_ANOMALY":24.7479,"EPHEMERIS_TYPE":0,"CLASSIFICATION_TYPE":"U","NORAD_CAT_ID":43491,"ELEMENT_SET_NO":999,"REV_AT_EPOCH":2840,"BSTAR":0,"MEAN_MOTION_DOT":-1.32e-6,"MEAN_MOTION_DDOT":0},{"OBJECT_NAME":"FENGYUN 2H AKM","OBJECT_ID":"2018-050C","EPOCH":"2026-03-06T03:52:31.546272","MEAN_MOTION":1.00066306,"ECCENTRICITY":0.00882608,"INCLINATION":4.6034,"RA_OF_ASC_NODE":77.9324,"ARG_OF_PERICENTER":321.6235,"MEAN_ANOMALY":38.032,"EPHEMERIS_TYPE":0,"CLASSIFICATION_TYPE":"U","NORAD_CAT_ID":43497,"ELEMENT_SET_NO":999,"REV_AT_EPOCH":2827,"BSTAR":0,"MEAN_MOTION_DOT":1.23e-6,"MEAN_MOTION_DDOT":0},{"OBJECT_NAME":"TITAN 3C TRANSTAGE DEB","OBJECT_ID":"1969-013S","EPOCH":"2026-03-05T14:09:56.266848","MEAN_MOTION":0.97799401,"ECCENTRICITY":0.02016964,"INCLINATION":1.27,"RA_OF_ASC_NODE":59.9205,"ARG_OF_PERICENTER":48.6944,"MEAN_ANOMALY":314.1217,"EPHEMERIS_TYPE":0,"CLASSIFICATION_TYPE":"U","NORAD_CAT_ID":43514,"ELEMENT_SET_NO":999,"REV_AT_EPOCH":87734,"BSTAR":0,"MEAN_MOTION_DOT":-6.2e-7,"MEAN_MOTION_DDOT":0},{"OBJECT_NAME":"TITAN 3C TRANSTAGE DEB","OBJECT_ID":"1969-013T","EPOCH":"2026-02-19T00:59:26.382912","MEAN_MOTION":0.95439532,"ECCENTRICITY":0.0312805,"INCLINATION":1.5348,"RA_OF_ASC_NODE":55.1758,"ARG_OF_PERICENTER":150.6557,"MEAN_ANOMALY":212.1051,"EPHEMERIS_TYPE":0,"CLASSIFICATION_TYPE":"U","NORAD_CAT_ID":43515,"ELEMENT_SET_NO":999,"REV_AT_EPOCH":2709,"BSTAR":0,"MEAN_MOTION_DOT":-7.2e-7,"MEAN_MOTION_DDOT":0},{"OBJECT_NAME":"BEIDOU-2 IGSO-7","OBJECT_ID":"2018-057A","EPOCH":"2026-02-25T17:45:22.620960","MEAN_MOTION":1.00284731,"ECCENTRICITY":0.00999628,"INCLINATION":55.1859,"RA_OF_ASC_NODE":164.0342,"ARG_OF_PERICENTER":236.5988,"MEAN_ANOMALY":133.5173,"EPHEMERIS_TYPE":0,"CLASSIFICATION_TYPE":"U","NORAD_CAT_ID":43539,"ELEMENT_SET_NO":999,"REV_AT_EPOCH":2801,"BSTAR":0,"MEAN_MOTION_DOT":-1.61e-6,"MEAN_MOTION_DDOT":0},{"OBJECT_NAME":"TELSTAR 19V","OBJECT_ID":"2018-059A","EPOCH":"2026-03-05T11:59:08.244672","MEAN_MOTION":1.00271487,"ECCENTRICITY":6.96e-5,"INCLINATION":0.0204,"RA_OF_ASC_NODE":164.1099,"ARG_OF_PERICENTER":262.4286,"MEAN_ANOMALY":213.4631,"EPHEMERIS_TYPE":0,"CLASSIFICATION_TYPE":"U","NORAD_CAT_ID":43562,"ELEMENT_SET_NO":999,"REV_AT_EPOCH":2810,"BSTAR":0,"MEAN_MOTION_DOT":-2.87e-6,"MEAN_MOTION_DDOT":0},{"OBJECT_NAME":"TELKOM 4 (MERAH PUTIH)","OBJECT_ID":"2018-064A","EPOCH":"2026-03-05T19:38:41.841312","MEAN_MOTION":1.00270024,"ECCENTRICITY":0.00017968,"INCLINATION":0.0122,"RA_OF_ASC_NODE":141.9955,"ARG_OF_PERICENTER":243.3032,"MEAN_ANOMALY":180.8979,"EPHEMERIS_TYPE":0,"CLASSIFICATION_TYPE":"U","NORAD_CAT_ID":43587,"ELEMENT_SET_NO":999,"REV_AT_EPOCH":2784,"BSTAR":0,"MEAN_MOTION_DOT":-3.5e-6,"MEAN_MOTION_DDOT":0},{"OBJECT_NAME":"TELSTAR 18V","OBJECT_ID":"2018-069A","EPOCH":"2026-03-05T18:54:38.721888","MEAN_MOTION":1.00267957,"ECCENTRICITY":0.00020461,"INCLINATION":0.0206,"RA_OF_ASC_NODE":171.4994,"ARG_OF_PERICENTER":178.92,"MEAN_ANOMALY":234.7731,"EPHEMERIS_TYPE":0,"CLASSIFICATION_TYPE":"U","NORAD_CAT_ID":43611,"ELEMENT_SET_NO":999,"REV_AT_EPOCH":2759,"BSTAR":0,"MEAN_MOTION_DOT":0,"MEAN_MOTION_DDOT":0},{"OBJECT_NAME":"AZERSPACE 2 (IS-38)","OBJECT_ID":"2018-074A","EPOCH":"2026-03-05T07:35:38.770944","MEAN_MOTION":1.00271143,"ECCENTRICITY":0.0001446,"INCLINATION":0.0249,"RA_OF_ASC_NODE":144.2303,"ARG_OF_PERICENTER":216.1159,"MEAN_ANOMALY":321.7363,"EPHEMERIS_TYPE":0,"CLASSIFICATION_TYPE":"U","NORAD_CAT_ID":43632,"ELEMENT_SET_NO":999,"REV_AT_EPOCH":2740,"BSTAR":0,"MEAN_MOTION_DOT":0,"MEAN_MOTION_DDOT":0}]
